{"type": "FeatureCollection", "features": [ {"type": "Feature", "properties": {"norad_id": 35242, "name": "FENGYUN 1C DEB", "group": "fengyun-1c-debris", "lat": 31.465980122573637, "lon": -143.38193146530338, "alt_km": 953.2347832105552, "timestamp": "2025-12-03T22:42:32.921823+00:00", "meta": {"OBJECT_NAME": "FENGYUN 1C DEB", "OBJECT_ID": "1999-025DRA", "EPOCH": "2025-11-30T22:04:23.860704", "MEAN_MOTION": 13.52294722, "ECCENTRICITY": 0.03015867, "INCLINATION": 99.9707, "RA_OF_ASC_NODE": 27.3938, "ARG_OF_PERICENTER": 217.9619, "MEAN_ANOMALY": 326.6369, "EPHEMERIS_TYPE": 0, "CLASSIFICATION_TYPE": "U", "NORAD_CAT_ID": 35242, "ELEMENT_SET_NO": 999, "REV_AT_EPOCH": 57967, "BSTAR": 0.0020813864, "MEAN_MOTION_DOT": 1.781e-05, "MEAN_MOTION_DDOT": 0}, "tle": {"line1": "1 35242U 99025DRA 25334.91972061  .00001781  00000+0  20814-2 0  9996", "line2": "2 35242  99.9707  27.3938 0301586 217.9619 326.6369 13.52294722579675"}}, "geometry": {"type": "Point", "coordinates": [-143.38193146530338, 31.465980122573637]}}, {"type": "Feature", "properties": {"norad_id": 35243, "name": "FENGYUN 1C DEB", "group": "fengyun-1c-debris", "lat": -79.77534254166068, "lon": 115.90202210365241, "alt_km": 570.7206739279964, "timestamp": "2025-12-03T22:42:32.921832+00:00", "meta": {"OBJECT_NAME": "FENGYUN 1C DEB", "OBJECT_ID": "1999-025DRB", "EPOCH": "2025-12-02T22:51:09.337824", "MEAN_MOTION": 14.86352035, "ECCENTRICITY": 0.00664826, "INCLINATION": 98.8819, "RA_OF_ASC_NODE": 54.6839, "ARG_OF_PERICENTER": 288.1056, "MEAN_ANOMALY": 71.2923, "EPHEMERIS_TYPE": 0, "CLASSIFICATION_TYPE": "U", "NORAD_CAT_ID": 35243, "ELEMENT_SET_NO": 999, "REV_AT_EPOCH": 90855, "BSTAR": 0.0031540832, "MEAN_MOTION_DOT": 0.00028979, "MEAN_MOTION_DDOT": 0}, "tle": {"line1": "1 35243U 99025DRB 25336.95219141  .00028979  00000+0  31541-2 0  9993", "line2": "2 35243  98.8819  54.6839 0066482 288.1056  71.2923 14.86352035908551"}}, "geometry": {"type": "Point", "coordinates": [115.90202210365241, -79.77534254166068]}}, {"type": "Feature", "properties": {"norad_id": 35244, "name": "FENGYUN 1C DEB", "group": "fengyun-1c-debris", "lat": -81.14594127579724, "lon": 106.20718281166266, "alt_km": 876.6736028992809, "timestamp": "2025-12-03T22:42:32.921841+00:00", "meta": {"OBJECT_NAME": "FENGYUN 1C DEB", "OBJECT_ID": "1999-025DRC", "EPOCH": "2025-11-28T08:16:08.942880", "MEAN_MOTION": 14.06587335, "ECCENTRICITY": 0.00714695, "INCLINATION": 98.8424, "RA_OF_ASC_NODE": 12.8921, "ARG_OF_PERICENTER": 197.497, "MEAN_ANOMALY": 162.3735, "EPHEMERIS_TYPE": 0, "CLASSIFICATION_TYPE": "U", "NORAD_CAT_ID": 35244, "ELEMENT_SET_NO": 999, "REV_AT_EPOCH": 65619, "BSTAR": 0.00065997772, "MEAN_MOTION_DOT": 1.076e-05, "MEAN_MOTION_DDOT": 0}, "tle": {"line1": "1 35244U 99025DRC 25332.34454795  .00001076  00000+0  65998-3 0  9992", "line2": "2 35244  98.8424  12.8921 0071469 197.4970 162.3735 14.06587335656198"}}, "geometry": {"type": "Point", "coordinates": [106.20718281166266, -81.14594127579724]}}, {"type": "Feature", "properties": {"norad_id": 35245, "name": "FENGYUN 1C DEB", "group": "fengyun-1c-debris", "lat": -36.75498671066661, "lon": 70.19876184080054, "alt_km": 817.9622261383856, "timestamp": "2025-12-03T22:42:32.921858+00:00", "meta": {"OBJECT_NAME": "FENGYUN 1C DEB", "OBJECT_ID": "1999-025DRD", "EPOCH": "2025-12-03T04:20:33.401760", "MEAN_MOTION": 14.12988735, "ECCENTRICITY": 0.00582863, "INCLINATION": 99.0852, "RA_OF_ASC_NODE": 62.5588, "ARG_OF_PERICENTER": 297.5587, "MEAN_ANOMALY": 94.3228, "EPHEMERIS_TYPE": 0, "CLASSIFICATION_TYPE": "U", "NORAD_CAT_ID": 35245, "ELEMENT_SET_NO": 999, "REV_AT_EPOCH": 87642, "BSTAR": 0.0022983217, "MEAN_MOTION_DOT": 4.31e-05, "MEAN_MOTION_DDOT": 0}, "tle": {"line1": "1 35245U 99025DRD 25337.18094215  .00004310  00000+0  22983-2 0  9997", "line2": "2 35245  99.0852  62.5588 0058286 297.5587  94.3228 14.12988735876423"}}, "geometry": {"type": "Point", "coordinates": [70.19876184080054, -36.75498671066661]}}, {"type": "Feature", "properties": {"norad_id": 36147, "name": "FENGYUN 1C DEB", "group": "fengyun-1c-debris", "lat": -52.466657354575574, "lon": 58.72439207184949, "alt_km": 783.6894218372945, "timestamp": "2025-12-03T22:42:32.921867+00:00", "meta": {"OBJECT_NAME": "FENGYUN 1C DEB", "OBJECT_ID": "1999-025DRU", "EPOCH": "2025-11-30T21:50:24.807840", "MEAN_MOTION": 13.46453652, "ECCENTRICITY": 0.04407422, "INCLINATION": 98.5269, "RA_OF_ASC_NODE": 44.8692, "ARG_OF_PERICENTER": 293.3481, "MEAN_ANOMALY": 62.1872, "EPHEMERIS_TYPE": 0, "CLASSIFICATION_TYPE": "U", "NORAD_CAT_ID": 36147, "ELEMENT_SET_NO": 999, "REV_AT_EPOCH": 59838, "BSTAR": 0.0016909351, "MEAN_MOTION_DOT": 1.8e-05, "MEAN_MOTION_DDOT": 0}, "tle": {"line1": "1 36147U 99025DRU 25334.91000935  .00001800  00000+0  16909-2 0  9995", "line2": "2 36147  98.5269  44.8692 0440742 293.3481  62.1872 13.46453652598384"}}, "geometry": {"type": "Point", "coordinates": [58.72439207184949, -52.466657354575574]}}, {"type": "Feature", "properties": {"norad_id": 36148, "name": "FENGYUN 1C DEB", "group": "fengyun-1c-debris", "lat": 52.48924655740796, "lon": 20.760508472374333, "alt_km": 1018.6482072411054, "timestamp": "2025-12-03T22:42:32.921876+00:00", "meta": {"OBJECT_NAME": "FENGYUN 1C DEB", "OBJECT_ID": "1999-025DRV", "EPOCH": "2025-12-01T19:49:52.589568", "MEAN_MOTION": 13.84775796, "ECCENTRICITY": 0.02844186, "INCLINATION": 98.4221, "RA_OF_ASC_NODE": 187.7265, "ARG_OF_PERICENTER": 19.3374, "MEAN_ANOMALY": 341.832, "EPHEMERIS_TYPE": 0, "CLASSIFICATION_TYPE": "U", "NORAD_CAT_ID": 36148, "ELEMENT_SET_NO": 999, "REV_AT_EPOCH": 90093, "BSTAR": 0.0033360095, "MEAN_MOTION_DOT": 5.112e-05, "MEAN_MOTION_DDOT": 0}, "tle": {"line1": "1 36148U 99025DRV 25335.82630312  .00005112  00000+0  33360-2 0  9995", "line2": "2 36148  98.4221 187.7265 0284418  19.3374 341.8320 13.84775796900939"}}, "geometry": {"type": "Point", "coordinates": [20.760508472374333, 52.48924655740796]}}, {"type": "Feature", "properties": {"norad_id": 36152, "name": "FENGYUN 1C DEB", "group": "fengyun-1c-debris", "lat": -7.930609104606761, "lon": 19.108404045223665, "alt_km": 855.3544143810259, "timestamp": "2025-12-03T22:42:32.921885+00:00", "meta": {"OBJECT_NAME": "FENGYUN 1C DEB", "OBJECT_ID": "1999-025DRZ", "EPOCH": "2025-12-01T19:54:46.717632", "MEAN_MOTION": 14.17165266, "ECCENTRICITY": 0.00551923, "INCLINATION": 98.7567, "RA_OF_ASC_NODE": 15.7938, "ARG_OF_PERICENTER": 243.2962, "MEAN_ANOMALY": 116.2556, "EPHEMERIS_TYPE": 0, "CLASSIFICATION_TYPE": "U", "NORAD_CAT_ID": 36152, "ELEMENT_SET_NO": 999, "REV_AT_EPOCH": 64002, "BSTAR": 0.0012638311, "MEAN_MOTION_DOT": 2.542e-05, "MEAN_MOTION_DDOT": 0}, "tle": {"line1": "1 36152U 99025DRZ 25335.82970738  .00002542  00000+0  12638-2 0  9998", "line2": "2 36152  98.7567  15.7938 0055192 243.2962 116.2556 14.17165266640021"}}, "geometry": {"type": "Point", "coordinates": [19.108404045223665, -7.930609104606761]}}, {"type": "Feature", "properties": {"norad_id": 36163, "name": "FENGYUN 1C DEB", "group": "fengyun-1c-debris", "lat": -68.87632084468437, "lon": -23.23605159338804, "alt_km": 727.9744414687502, "timestamp": "2025-12-03T22:42:32.921894+00:00", "meta": {"OBJECT_NAME": "FENGYUN 1C DEB", "OBJECT_ID": "1999-025DSL", "EPOCH": "2025-11-27T12:26:15.654336", "MEAN_MOTION": 14.58361311, "ECCENTRICITY": 0.00369307, "INCLINATION": 99.0776, "RA_OF_ASC_NODE": 174.1952, "ARG_OF_PERICENTER": 119.0745, "MEAN_ANOMALY": 241.4158, "EPHEMERIS_TYPE": 0, "CLASSIFICATION_TYPE": "U", "NORAD_CAT_ID": 36163, "ELEMENT_SET_NO": 999, "REV_AT_EPOCH": 88965, "BSTAR": 0.0029707469, "MEAN_MOTION_DOT": 0.00013857, "MEAN_MOTION_DDOT": 0}, "tle": {"line1": "1 36163U 99025DSL 25331.51823674  .00013857  00000+0  29707-2 0  9994", "line2": "2 36163  99.0776 174.1952 0036930 119.0745 241.4158 14.58361311889650"}}, "geometry": {"type": "Point", "coordinates": [-23.23605159338804, -68.87632084468437]}}, {"type": "Feature", "properties": {"norad_id": 36167, "name": "FENGYUN 1C DEB", "group": "fengyun-1c-debris", "lat": -66.69717734543484, "lon": -94.15948372285484, "alt_km": 689.3730012924634, "timestamp": "2025-12-03T22:42:32.921903+00:00", "meta": {"OBJECT_NAME": "FENGYUN 1C DEB", "OBJECT_ID": "1999-025DSQ", "EPOCH": "2025-12-03T11:25:18.105600", "MEAN_MOTION": 14.49112363, "ECCENTRICITY": 0.0069467, "INCLINATION": 98.8131, "RA_OF_ASC_NODE": 244.2376, "ARG_OF_PERICENTER": 272.8926, "MEAN_ANOMALY": 86.4318, "EPHEMERIS_TYPE": 0, "CLASSIFICATION_TYPE": "U", "NORAD_CAT_ID": 36167, "ELEMENT_SET_NO": 999, "REV_AT_EPOCH": 67145, "BSTAR": 0.0017038, "MEAN_MOTION_DOT": 6.631e-05, "MEAN_MOTION_DDOT": 0}, "tle": {"line1": "1 36167U 99025DSQ 25337.47590400  .00006631  00000+0  17038-2 0  9993", "line2": "2 36167  98.8131 244.2376 0069467 272.8926  86.4318 14.49112363671458"}}, "geometry": {"type": "Point", "coordinates": [-94.15948372285484, -66.69717734543484]}}, {"type": "Feature", "properties": {"norad_id": 36173, "name": "FENGYUN 1C DEB", "group": "fengyun-1c-debris", "lat": 28.259183062058394, "lon": -68.83580596405922, "alt_km": 911.5044585001297, "timestamp": "2025-12-03T22:42:32.921912+00:00", "meta": {"OBJECT_NAME": "FENGYUN 1C DEB", "OBJECT_ID": "1999-025DSW", "EPOCH": "2025-11-27T03:07:28.371072", "MEAN_MOTION": 14.25142788, "ECCENTRICITY": 0.01460397, "INCLINATION": 98.2105, "RA_OF_ASC_NODE": 289.2336, "ARG_OF_PERICENTER": 231.4906, "MEAN_ANOMALY": 127.3105, "EPHEMERIS_TYPE": 0, "CLASSIFICATION_TYPE": "U", "NORAD_CAT_ID": 36173, "ELEMENT_SET_NO": 999, "REV_AT_EPOCH": 58868, "BSTAR": 0.00039734703, "MEAN_MOTION_DOT": 1e-05, "MEAN_MOTION_DDOT": 0}, "tle": {"line1": "1 36173U 99025DSW 25331.13018948  .00001000  00000+0  39735-3 0  9993", "line2": "2 36173  98.2105 289.2336 0146039 231.4906 127.3105 14.25142788588684"}}, "geometry": {"type": "Point", "coordinates": [-68.83580596405922, 28.259183062058394]}}]}